[
    {
        "Altitude(m)": 712168.6252794118,
        "Argument of Periapsis(deg)": 0.0022780242373254137,
        "Eccentricity": 0.0,
        "Inclination(deg)": 45.0,
        "Latitude(deg)": -31.194581575872107,
        "Longitude(deg)": 12.839202016898778,
        "Mean Anomaly(deg)": -46.78425667050385,
        "RAAN(deg)": 149.99784961170838,
        "Satellite Name": "Constellation 1 679",
        "Satellite Number": 679,
        "Semi-Major Axis(m)": 7083131.272910544,
        "Time(s)": 38
    },
    {
        "Altitude(m)": 712155.1068011188,
        "Argument of Periapsis(deg)": 0.002337972243570819,
        "Eccentricity": 0.0,
        "Inclination(deg)": 45.0,
        "Latitude(deg)": -31.160221473851134,
        "Longitude(deg)": 12.89342866941702,
        "Mean Anomaly(deg)": -46.723555530253876,
        "RAAN(deg)": 149.9977930225428,
        "Satellite Name": "Constellation 1 679",
        "Satellite Number": 679,
        "Semi-Major Axis(m)": 7083131.272910544,
        "Time(s)": 39
    },
    {
        "Altitude(m)": 712141.5826570721,
        "Argument of Periapsis(deg)": 0.0023979202498162246,
        "Eccentricity": 0.0,
        "Inclination(deg)": 45.0,
        "Latitude(deg)": -31.12583471321814,
        "Longitude(deg)": 12.947613372892311,
        "Mean Anomaly(deg)": -46.662854390004036,
        "RAAN(deg)": 149.9977364333772,
        "Satellite Name": "Constellation 1 679",
        "Satellite Number": 679,
        "Semi-Major Axis(m)": 7083131.272910544,
        "Time(s)": 40
    },
    {
        "Altitude(m)": 712128.0528949852,
        "Argument of Periapsis(deg)": 0.00245786825606163,
        "Eccentricity": 0.0,
        "Inclination(deg)": 45.0,
        "Latitude(deg)": -31.091421348157134,
        "Longitude(deg)": 13.001756182168391,
        "Mean Anomaly(deg)": -46.60215324975407,
        "RAAN(deg)": 149.99767984421166,
        "Satellite Name": "Constellation 1 679",
        "Satellite Number": 679,
        "Semi-Major Axis(m)": 7083131.272910544,
        "Time(s)": 41
    },
    {
        "Altitude(m)": 712114.5175625831,
        "Argument of Periapsis(deg)": 0.002517816262307036,
        "Eccentricity": 0.0,
        "Inclination(deg)": 45.0,
        "Latitude(deg)": -31.056981432780123,
        "Longitude(deg)": 13.055857152170084,
        "Mean Anomaly(deg)": -46.541452109504185,
        "RAAN(deg)": 149.99762325504608,
        "Satellite Name": "Constellation 1 679",
        "Satellite Number": 679,
        "Semi-Major Axis(m)": 7083131.272910544,
        "Time(s)": 42
    },
    {
        "Altitude(m)": 712100.9767075983,
        "Argument of Periapsis(deg)": 0.0025777642685524413,
        "Eccentricity": 0.0,
        "Inclination(deg)": 45.0,
        "Latitude(deg)": -31.022515021126843,
        "Longitude(deg)": 13.109916337903405,
        "Mean Anomaly(deg)": -46.480750969254245,
        "RAAN(deg)": 149.99756666588053,
        "Satellite Name": "Constellation 1 679",
        "Satellite Number": 679,
        "Semi-Major Axis(m)": 7083131.272910544,
        "Time(s)": 43
    },
    {
        "Altitude(m)": 712087.4303777779,
        "Argument of Periapsis(deg)": 0.002637712274797847,
        "Eccentricity": 0.0,
        "Inclination(deg)": 45.0,
        "Latitude(deg)": -30.988022167165358,
        "Longitude(deg)": 13.163933626356814,
        "Mean Anomaly(deg)": -46.42004982900437,
        "RAAN(deg)": 149.99751007671495,
        "Satellite Name": "Constellation 1 679",
        "Satellite Number": 679,
        "Semi-Major Axis(m)": 7083131.272910544,
        "Time(s)": 44
    },
    {
        "Altitude(m)": 712073.8786208782,
        "Argument of Periapsis(deg)": 0.0026976602810432526,
        "Eccentricity": 0.0,
        "Inclination(deg)": 45.0,
        "Latitude(deg)": -30.95350292479047,
        "Longitude(deg)": 13.21790940888946,
        "Mean Anomaly(deg)": -46.35934868875442,
        "RAAN(deg)": 149.9974534875494,
        "Satellite Name": "Constellation 1 679",
        "Satellite Number": 679,
        "Semi-Major Axis(m)": 7083131.272910544,
        "Time(s)": 45
    },
    {
        "Altitude(m)": 712060.3214846724,
        "Argument of Periapsis(deg)": 0.0027576082872886585,
        "Eccentricity": 0.0,
        "Inclination(deg)": 45.0,
        "Latitude(deg)": -30.91895734782603,
        "Longitude(deg)": 13.271843572647304,
        "Mean Anomaly(deg)": -46.29864754850467,
        "RAAN(deg)": 149.9973968983838,
        "Satellite Name": "Constellation 1 679",
        "Satellite Number": 679,
        "Semi-Major Axis(m)": 7083131.272910544,
        "Time(s)": 46
    },
    {
        "Altitude(m)": 712046.7590169334,
        "Argument of Periapsis(deg)": 0.0028175562935340644,
        "Eccentricity": 0.0,
        "Inclination(deg)": 45.0,
        "Latitude(deg)": -30.884385490023057,
        "Longitude(deg)": 13.325736172951578,
        "Mean Anomaly(deg)": -46.23794640825469,
        "RAAN(deg)": 149.99734030921823,
        "Satellite Name": "Constellation 1 679",
        "Satellite Number": 679,
        "Semi-Major Axis(m)": 7083131.272910544,
        "Time(s)": 47
    },
    {
        "Altitude(m)": 712033.1912654527,
        "Argument of Periapsis(deg)": 0.00287750429977947,
        "Eccentricity": 0.0,
        "Inclination(deg)": 45.0,
        "Latitude(deg)": -30.84978740506077,
        "Longitude(deg)": 13.379587265199962,
        "Mean Anomaly(deg)": -46.17724526800474,
        "RAAN(deg)": 149.99728372005268,
        "Satellite Name": "Constellation 1 679",
        "Satellite Number": 679,
        "Semi-Major Axis(m)": 7083131.272910544,
        "Time(s)": 48
    },
    {
        "Altitude(m)": 712019.6182780338,
        "Argument of Periapsis(deg)": 0.002937452306024875,
        "Eccentricity": 0.0,
        "Inclination(deg)": 45.0,
        "Latitude(deg)": -30.815163146546222,
        "Longitude(deg)": 13.433396904866271,
        "Mean Anomaly(deg)": -46.1165441277549,
        "RAAN(deg)": 149.9972271308871,
        "Satellite Name": "Constellation 1 679",
        "Satellite Number": 679,
        "Semi-Major Axis(m)": 7083131.272910544,
        "Time(s)": 49
    },
    {
        "Altitude(m)": 712006.0401024844,
        "Argument of Periapsis(deg)": 0.0029974003122702807,
        "Eccentricity": 0.0,
        "Inclination(deg)": 45.0,
        "Latitude(deg)": -30.7805127680142,
        "Longitude(deg)": 13.487165147499788,
        "Mean Anomaly(deg)": -46.05584298750501,
        "RAAN(deg)": 149.99717054172154,
        "Satellite Name": "Constellation 1 679",
        "Satellite Number": 679,
        "Semi-Major Axis(m)": 7083131.272910544,
        "Time(s)": 50
    },
    {
        "Altitude(m)": 711992.4567866244,
        "Argument of Periapsis(deg)": 0.0030573483185156866,
        "Eccentricity": 0.0,
        "Inclination(deg)": 45.0,
        "Latitude(deg)": -30.745836322927495,
        "Longitude(deg)": 13.540892048724627,
        "Mean Anomaly(deg)": -45.99514184725506,
        "RAAN(deg)": 149.99711395255596,
        "Satellite Name": "Constellation 1 679",
        "Satellite Number": 679,
        "Semi-Major Axis(m)": 7083131.272910544,
        "Time(s)": 51
    },
    {
        "Altitude(m)": 711978.8683782845,
        "Argument of Periapsis(deg)": 0.003117296324761092,
        "Eccentricity": 0.0,
        "Inclination(deg)": 45.0,
        "Latitude(deg)": -30.711133864677137,
        "Longitude(deg)": 13.594577496141298,
        "Mean Anomaly(deg)": -45.93444070700518,
        "RAAN(deg)": 149.99705736339038,
        "Satellite Name": "Constellation 1 679",
        "Satellite Number": 679,
        "Semi-Major Axis(m)": 7083131.272910544,
        "Time(s)": 52
    },
    {
        "Altitude(m)": 711965.2749253002,
        "Argument of Periapsis(deg)": 0.0031772443310064975,
        "Eccentricity": 0.0,
        "Inclination(deg)": 45.0,
        "Latitude(deg)": -30.676405446581057,
        "Longitude(deg)": 13.64822188171484,
        "Mean Anomaly(deg)": -45.87373956675534,
        "RAAN(deg)": 149.99700077422483,
        "Satellite Name": "Constellation 1 679",
        "Satellite Number": 679,
        "Semi-Major Axis(m)": 7083131.272910544,
        "Time(s)": 53
    },
    {
        "Altitude(m)": 711951.6764755242,
        "Argument of Periapsis(deg)": 0.0032371923372519038,
        "Eccentricity": 0.0,
        "Inclination(deg)": 45.0,
        "Latitude(deg)": -30.64165112188599,
        "Longitude(deg)": 13.701825093191626,
        "Mean Anomaly(deg)": -45.813038426505386,
        "RAAN(deg)": 149.99694418505925,
        "Satellite Name": "Constellation 1 679",
        "Satellite Number": 679,
        "Semi-Major Axis(m)": 7083131.272910544,
        "Time(s)": 54
    },
    {
        "Altitude(m)": 711938.0730768148,
        "Argument of Periapsis(deg)": 0.0032971403434973088,
        "Eccentricity": 0.0,
        "Inclination(deg)": 45.0,
        "Latitude(deg)": -30.60687094376648,
        "Longitude(deg)": 13.75538718648652,
        "Mean Anomaly(deg)": -45.75233728625542,
        "RAAN(deg)": 149.9968875958937,
        "Satellite Name": "Constellation 1 679",
        "Satellite Number": 679,
        "Semi-Major Axis(m)": 7083131.272910544,
        "Time(s)": 55
    },
    {
        "Altitude(m)": 711924.4647770362,
        "Argument of Periapsis(deg)": 0.0033570883497427146,
        "Eccentricity": 0.0,
        "Inclination(deg)": 45.0,
        "Latitude(deg)": -30.57206496532502,
        "Longitude(deg)": 13.80890821758512,
        "Mean Anomaly(deg)": -45.69163614600566,
        "RAAN(deg)": 149.99683100672812,
        "Satellite Name": "Constellation 1 679",
        "Satellite Number": 679,
        "Semi-Major Axis(m)": 7083131.272910544,
        "Time(s)": 56
    }
]